      2.10          N: GNSS NAV DATA                        RINEX VERSION / TYPE
fic2rin                                 06/08/2019 09:32:12 PGM / RUN BY / DATE
                                                            END OF HEADER
28 19  6  6  4  0  0.0 7.676305249333e-04-2.273736754432e-13 0.000000000000e+00
    5.800000000000e+01 1.410000000000e+02 3.594435436949e-09 2.424251927664e+00
    7.219612598419e-06 1.902485184837e-02 7.260590791702e-06 5.153708251953e+03
    3.600000000000e+05 2.048909664154e-07 1.167650231102e+00 1.303851604462e-08
    9.819512166325e-01 2.441250000000e+02-1.465297661815e+00-7.392807940125e-09
    9.750406143553e-11 1.000000000000e+00 2.056000000000e+03 0.000000000000e+00
    2.400000000000e+00 0.000000000000e+00-1.117587089539e-08 5.800000000000e+01
    3.528000000000e+05 4.000000000000e+00
26 19  6  6  4  0  0.0 2.198764123023e-04 9.549694368616e-12 0.000000000000e+00
    1.170000000000e+02 1.547500000000e+02 4.336966366343e-09-2.875099987112e+00
    7.949769496918e-06 3.717727842741e-03 7.705762982368e-06 5.153625104904e+03
    3.600000000000e+05 1.676380634308e-08 1.051565373027e+00-1.862645149231e-09
    9.514546353332e-01 2.279375000000e+02 1.726342607156e-01-8.036406177146e-09
    1.132190017402e-10 1.000000000000e+00 2.056000000000e+03 0.000000000000e+00
    3.400000000000e+00 0.000000000000e+00 7.450580596924e-09 1.170000000000e+02
    3.528000000000e+05 4.000000000000e+00
20 19  6  6  4  0  0.0 5.252044647932e-04 2.273736754432e-13 0.000000000000e+00
    7.600000000000e+01-2.656250000000e+01 5.137714006411e-09-9.419769596357e-01
   -1.493841409683e-06 4.440212855116e-03 1.120939850807e-05 5.153694015503e+03
    3.600000000000e+05-7.636845111847e-08-2.185528119082e+00-3.539025783539e-08
    9.306989701364e-01 1.485312500000e+02 2.367322393074e+00-8.215342201978e-09
    6.303834008561e-10 1.000000000000e+00 2.056000000000e+03 0.000000000000e+00
    2.400000000000e+00 0.000000000000e+00-8.847564458847e-09 7.600000000000e+01
    3.528000000000e+05 4.000000000000e+00
 6 19  6  6  3 59 44.0 1.857890747488e-04-1.045918907039e-11 0.000000000000e+00
    0.000000000000e+00-1.353437500000e+02 4.071955327570e-09-3.837925116643e-01
   -7.331371307373e-06 1.521394122392e-03 6.956979632378e-06 5.153598781586e+03
    3.599840000000e+05-2.421438694000e-08-3.113569214301e+00-5.029141902924e-08
    9.757878301198e-01 2.518437500000e+02-1.065885446544e+00-7.884256982379e-09
   -1.535778257043e-11 1.000000000000e+00 2.056000000000e+03 0.000000000000e+00
    2.400000000000e+00 0.000000000000e+00 4.190951585770e-09 0.000000000000e+00
    3.540300000000e+05 4.000000000000e+00
26 19  6  6  3 59 44.0 2.198750153184e-04 9.549694368616e-12 0.000000000000e+00
    0.000000000000e+00 1.547500000000e+02 4.336966366343e-09-2.877432511974e+00
    7.949769496918e-06 3.717732499354e-03 7.705762982368e-06 5.153625108719e+03
    3.599840000000e+05 1.676380634308e-08 1.051565507616e+00-1.862645149231e-09
    9.514546353332e-01 2.279375000000e+02 1.726329982173e-01-8.036406177146e-09
    1.128618440060e-10 1.000000000000e+00 2.056000000000e+03 0.000000000000e+00
    2.400000000000e+00 0.000000000000e+00 7.450580596924e-09 0.000000000000e+00
    3.540300000000e+05 4.000000000000e+00
 6 19  6  6  5 59 44.0 1.857136376202e-04-1.045918907039e-11 0.000000000000e+00
    9.000000000000e+00-1.455000000000e+02 3.951593171145e-09 6.660631270599e-01
   -7.411465048790e-06 1.522561069578e-03 6.668269634247e-06 5.153601106644e+03
    3.671840000000e+05 3.911554813385e-08-3.113625818990e+00 0.000000000000e+00
    9.757873927073e-01 2.550000000000e+02-1.065518441360e+00-7.936044853837e-09
   -6.321691895271e-11 1.000000000000e+00 2.056000000000e+03 0.000000000000e+00
    2.400000000000e+00 0.000000000000e+00 4.190951585770e-09 9.000000000000e+00
    3.600000000000e+05 4.000000000000e+00
26 19  6  6  5 59 44.0 2.199434675276e-04 9.549694368616e-12 0.000000000000e+00
    4.000000000000e+00 1.337187500000e+02 4.436613374184e-09-1.827825148003e+00
    6.990507245064e-06 3.719912259839e-03 7.335096597672e-06 5.153619235992e+03
    3.671840000000e+05-6.146728992462e-08 1.051508108562e+00-7.450580596924e-09
    9.514554077539e-01 2.361875000000e+02 1.732368352095e-01-7.996761668650e-09
    5.678807973718e-11 1.000000000000e+00 2.056000000000e+03 0.000000000000e+00
    2.400000000000e+00 0.000000000000e+00 7.450580596924e-09 4.000000000000e+00
    3.600000000000e+05 4.000000000000e+00
 2 19  6  6  6  0  0.0-2.307142131031e-04-8.981260180008e-12 0.000000000000e+00
    5.000000000000e+00-1.260625000000e+02 4.634478758928e-09 7.615578564330e-01
   -6.778165698051e-06 1.888782798778e-02 6.293877959251e-06 5.153724067688e+03
    3.672000000000e+05-2.402812242508e-07 3.108928358316e+00-1.098960638046e-07
    9.552277219602e-01 2.576875000000e+02-1.737400502093e+00-8.481424713954e-09
   -1.717928701483e-10 1.000000000000e+00 2.056000000000e+03 0.000000000000e+00
    2.400000000000e+00 0.000000000000e+00-2.048909664154e-08 5.000000000000e+00
    3.600000000000e+05 4.000000000000e+00
 1 19  6  6  6  0  0.0-3.407802432775e-05-9.436007530894e-12 0.000000000000e+00
    6.000000000000e+01-1.397812500000e+02 4.022667560250e-09 4.826836613691e-01
   -7.318332791328e-06 8.919460698962e-03 7.519498467445e-06 5.153658569336e+03
    3.672000000000e+05-5.774199962616e-08-3.105348616794e+00 1.527369022369e-07
    9.761426404191e-01 2.447812500000e+02 7.108657671211e-01-7.992118618106e-09
   -1.446488823494e-10 1.000000000000e+00 2.056000000000e+03 0.000000000000e+00
    2.400000000000e+00 0.000000000000e+00 5.587935447693e-09 6.000000000000e+01
    3.600000000000e+05 4.000000000000e+00
 5 19  6  6  6  0  0.0 6.607733666897e-07-1.136868377216e-13 0.000000000000e+00
    7.000000000000e+00-3.456250000000e+01 4.744840498795e-09-2.833416174288e+00
   -1.957640051842e-06 5.679159890860e-03 1.051463186741e-05 5.153701780319e+03
    3.672000000000e+05 2.607703208923e-08-2.090496208712e+00-1.266598701477e-07
    9.497156499832e-01 1.737500000000e+02 7.119758044901e-01-7.837826476933e-09
    6.053823594624e-10 1.000000000000e+00 2.056000000000e+03 0.000000000000e+00
    2.400000000000e+00 0.000000000000e+00-1.117587089539e-08 7.000000000000e+00
    3.600000000000e+05 4.000000000000e+00
 3 19  6  6  6  0  0.0 1.864219084382e-04-1.136868377216e-12 0.000000000000e+00
    7.300000000000e+01-2.943750000000e+01 4.529474385075e-09-4.650619441310e-01
   -1.404434442520e-06 2.223517745733e-03 1.099891960621e-05 5.153775295258e+03
    3.672000000000e+05 9.313225746155e-09-2.063507842482e+00 6.891787052155e-08
    9.628174536002e-01 1.712187500000e+02 5.946259904107e-01-7.827468902641e-09
    6.632419124021e-10 1.000000000000e+00 2.056000000000e+03 0.000000000000e+00
    2.400000000000e+00 0.000000000000e+00 1.862645149231e-09 7.300000000000e+01
    3.600000000000e+05 4.000000000000e+00
 7 19  6  6  6  0  0.0-3.885198384523e-05-7.617018127348e-12 0.000000000000e+00
    2.700000000000e+01 2.134375000000e+01 4.704481674831e-09-1.153125748430e-01
    1.059845089912e-06 1.281556091271e-02 9.512528777122e-06 5.153746614456e+03
    3.672000000000e+05 3.725290298462e-08 4.477090936808e-02 1.098960638046e-07
    9.558137874236e-01 1.910312500000e+02-2.462663312703e+00-8.144267812873e-09
   -7.600316583693e-10 1.000000000000e+00 2.056000000000e+03 0.000000000000e+00
    2.400000000000e+00 0.000000000000e+00-1.117587089539e-08 2.700000000000e+01
    3.600000000000e+05 4.000000000000e+00
 8 19  6  6  6  0  0.0-1.463536173105e-04-1.477928890381e-12 0.000000000000e+00
    3.300000000000e+01 6.968750000000e+00 4.459114311438e-09 2.822719791278e+00
    3.967434167862e-07 4.396469448693e-03-4.842877388000e-08 5.153750022888e+03
    3.672000000000e+05-4.470348358154e-08 2.111030401278e+00-7.450580596924e-09
    9.701377888758e-01 3.858437500000e+02-2.199410098373e-01-8.414279059926e-09
    5.428797559780e-11 1.000000000000e+00 2.056000000000e+03 0.000000000000e+00
    2.400000000000e+00 0.000000000000e+00 5.122274160385e-09 3.300000000000e+01
    3.600000000000e+05 4.000000000000e+00
 4 19  6  6  6  0  0.0 1.656487584114e-04 2.160049916711e-12 0.000000000000e+00
    1.750000000000e+02 2.187500000000e+00 5.110570018612e-09-4.027383467773e-01
    1.937150955200e-07 4.473912995309e-04 5.654990673065e-06 5.153729330063e+03
    3.672000000000e+05 3.539025783539e-08-9.857151073565e-01-6.705522537231e-08
    9.595142533343e-01 2.680000000000e+02-1.471893315750e+00-8.186055267774e-09
    1.071473202588e-12 1.000000000000e+00 2.056000000000e+03 0.000000000000e+00
    1.536000000000e+03 6.300000000000e+01-8.847564458847e-09 9.430000000000e+02
    3.600000000000e+05 4.000000000000e+00
13 19  6  6  6  0  0.0-6.036926060915e-05 1.705302565824e-12 0.000000000000e+00
    2.900000000000e+01 3.875000000000e+00 4.923062208159e-09 1.662685144504e+00
    1.583248376846e-07 3.514086245559e-03 5.694106221199e-06 5.153653423309e+03
    3.672000000000e+05-1.024454832077e-07-8.935998416317e-01-9.685754776001e-08
    9.676533984881e-01 2.733125000000e+02 1.281625948979e+00-8.040692069956e-09
   -3.142988060926e-11 1.000000000000e+00 2.056000000000e+03 0.000000000000e+00
    2.400000000000e+00 0.000000000000e+00-1.117587089539e-08 2.900000000000e+01
    3.600000000000e+05 4.000000000000e+00
11 19  6  6  6  0  0.0-5.908240564167e-04 8.412825991400e-12 0.000000000000e+00
    2.500000000000e+01-1.140312500000e+02 5.773811931014e-09-2.340562762862e-01
   -6.051734089851e-06 1.663787022699e-02 2.725049853325e-06 5.153708862305e+03
    3.672000000000e+05-3.036111593246e-07 2.726543778030e+00-9.685754776001e-08
    9.098198858559e-01 3.008750000000e+02 1.890991896728e+00-9.198240286486e-09
   -8.178912113090e-11 1.000000000000e+00 2.056000000000e+03 0.000000000000e+00
    2.400000000000e+00 0.000000000000e+00-1.257285475731e-08 2.500000000000e+01
    3.600000000000e+05 4.000000000000e+00
